[{"CCSDS_OMM_VERS":"2.0","COMMENT":"GENERATED VIA SPACE-TRACK.ORG API","CREATION_DATE":"2022-12-08T18:21:51","ORIGINATOR":"18 SPCS","OBJECT_NAME":"TELSTAR 302","OBJECT_ID":"1984-093D","CENTER_NAME":"EARTH","REF_FRAME":"TEME","TIME_SYSTEM":"UTC","MEAN_ELEMENT_THEORY":"SGP4","EPOCH":"2022-12-08T13:54:06.730848","MEAN_MOTION":"0.99775818","ECCENTRICITY":"0.00048610","INCLINATION":"14.8181","RA_OF_ASC_NODE":"355.1830","ARG_OF_PERICENTER":"131.1261","MEAN_ANOMALY":"263.1179","EPHEMERIS_TYPE":"0","CLASSIFICATION_TYPE":"U","NORAD_CAT_ID":"15237","ELEMENT_SET_NO":"999","REV_AT_EPOCH":"3360","BSTAR":"0.00000000000000","MEAN_MOTION_DOT":"-0.00000250","MEAN_MOTION_DDOT":"0.0000000000000","SEMIMAJOR_AXIS":"42304.345","PERIOD":"1443.235","APOAPSIS":"35946.774","PERIAPSIS":"35905.646","OBJECT_TYPE":"PAYLOAD","RCS_SIZE":"LARGE","COUNTRY_CODE":"US","LAUNCH_DATE":"1984-08-30","SITE":"AFETR","DECAY_DATE":null,"FILE":"3684614","GP_ID":"219756625","TLE_LINE0":"0 TELSTAR 302","TLE_LINE1":"1 15237U 84093D   22342.57924457 -.00000250  00000-0  00000-0 0  9996","TLE_LINE2":"2 15237  14.8181 355.1830 0004861 131.1261 263.1179  0.99775818 33607"},{"CCSDS_OMM_VERS":"2.0","COMMENT":"GENERATED VIA SPACE-TRACK.ORG API","CREATION_DATE":"2022-12-08T18:21:51","ORIGINATOR":"18 SPCS","OBJECT_NAME":"SL-12 R\/B(2)","OBJECT_ID":"1984-078F","CENTER_NAME":"EARTH","REF_FRAME":"TEME","TIME_SYSTEM":"UTC","MEAN_ELEMENT_THEORY":"SGP4","EPOCH":"2022-12-08T02:13:42.570912","MEAN_MOTION":"1.00272381","ECCENTRICITY":"0.00250170","INCLINATION":"11.3520","RA_OF_ASC_NODE":"323.2557","ARG_OF_PERICENTER":"175.6285","MEAN_ANOMALY":"3.0619","EPHEMERIS_TYPE":"0","CLASSIFICATION_TYPE":"U","NORAD_CAT_ID":"15181","ELEMENT_SET_NO":"999","REV_AT_EPOCH":"11010","BSTAR":"0.00000000000000","MEAN_MOTION_DOT":"0.00000147","MEAN_MOTION_DDOT":"0.0000000000000","SEMIMAJOR_AXIS":"42164.565","PERIOD":"1436.088","APOAPSIS":"35891.913","PERIAPSIS":"35680.947","OBJECT_TYPE":"ROCKET BODY","RCS_SIZE":"LARGE","COUNTRY_CODE":"CIS","LAUNCH_DATE":"1984-08-01","SITE":"TTMTR","DECAY_DATE":null,"FILE":"3684614","GP_ID":"219757124","TLE_LINE0":"0 SL-12 R\/B(2)","TLE_LINE1":"1 15181U 84078F   22342.09285383  .00000147  00000-0  00000-0 0  9996","TLE_LINE2":"2 15181  11.3520 323.2557 0025017 175.6285   3.0619  1.00272381110102"},{"CCSDS_OMM_VERS":"2.0","COMMENT":"GENERATED VIA SPACE-TRACK.ORG API","CREATION_DATE":"2022-12-08T18:21:51","ORIGINATOR":"18 SPCS","OBJECT_NAME":"HIMAWARI 3 (GMS 3)","OBJECT_ID":"1984-080A","CENTER_NAME":"EARTH","REF_FRAME":"TEME","TIME_SYSTEM":"UTC","MEAN_ELEMENT_THEORY":"SGP4","EPOCH":"2022-12-08T13:45:41.825664","MEAN_MOTION":"0.99824413","ECCENTRICITY":"0.00080840","INCLINATION":"12.5715","RA_OF_ASC_NODE":"332.8504","ARG_OF_PERICENTER":"118.4579","MEAN_ANOMALY":"278.7498","EPHEMERIS_TYPE":"0","CLASSIFICATION_TYPE":"U","NORAD_CAT_ID":"15152","ELEMENT_SET_NO":"999","REV_AT_EPOCH":"13980","BSTAR":"0.00000000000000","MEAN_MOTION_DOT":"-0.00000107","MEAN_MOTION_DDOT":"0.0000000000000","SEMIMAJOR_AXIS":"42290.615","PERIOD":"1442.533","APOAPSIS":"35946.667","PERIAPSIS":"35878.292","OBJECT_TYPE":"PAYLOAD","RCS_SIZE":"LARGE","COUNTRY_CODE":"JPN","LAUNCH_DATE":"1984-08-02","SITE":"TNSTA","DECAY_DATE":null,"FILE":"3684614","GP_ID":"219756129","TLE_LINE0":"0 HIMAWARI 3 (GMS 3)","TLE_LINE1":"1 15152U 84080A   22342.57340076 -.00000107  00000-0  00000-0 0  9998","TLE_LINE2":"2 15152  12.5715 332.8504 0008084 118.4579 278.7498  0.99824413139803"},{"CCSDS_OMM_VERS":"2.0","COMMENT":"GENERATED VIA SPACE-TRACK.ORG API","CREATION_DATE":"2022-12-08T18:21:51","ORIGINATOR":"18 SPCS","OBJECT_NAME":"GORIZONT 10","OBJECT_ID":"1984-078A","CENTER_NAME":"EARTH","REF_FRAME":"TEME","TIME_SYSTEM":"UTC","MEAN_ELEMENT_THEORY":"SGP4","EPOCH":"2022-12-08T09:27:59.229792","MEAN_MOTION":"1.00252138","ECCENTRICITY":"0.00004020","INCLINATION":"11.2830","RA_OF_ASC_NODE":"322.9107","ARG_OF_PERICENTER":"173.6388","MEAN_ANOMALY":"273.7904","EPHEMERIS_TYPE":"0","CLASSIFICATION_TYPE":"U","NORAD_CAT_ID":"15144","ELEMENT_SET_NO":"999","REV_AT_EPOCH":"14167","BSTAR":"0.00000000000000","MEAN_MOTION_DOT":"0.00000103","MEAN_MOTION_DDOT":"0.0000000000000","SEMIMAJOR_AXIS":"42170.241","PERIOD":"1436.378","APOAPSIS":"35793.801","PERIAPSIS":"35790.410","OBJECT_TYPE":"PAYLOAD","RCS_SIZE":"LARGE","COUNTRY_CODE":"CIS","LAUNCH_DATE":"1984-08-01","SITE":"TTMTR","DECAY_DATE":null,"FILE":"3684614","GP_ID":"219755880","TLE_LINE0":"0 GORIZONT 10","TLE_LINE1":"1 15144U 84078A   22342.39443553  .00000103  00000-0  00000-0 0  9995","TLE_LINE2":"2 15144  11.2830 322.9107 0000402 173.6388 273.7904  1.00252138141671"},{"CCSDS_OMM_VERS":"2.0","COMMENT":"GENERATED VIA SPACE-TRACK.ORG API","CREATION_DATE":"2022-12-08T18:21:51","ORIGINATOR":"18 SPCS","OBJECT_NAME":"RADUGA 15","OBJECT_ID":"1984-063A","CENTER_NAME":"EARTH","REF_FRAME":"TEME","TIME_SYSTEM":"UTC","MEAN_ELEMENT_THEORY":"SGP4","EPOCH":"2022-12-08T14:35:04.440192","MEAN_MOTION":"1.00260598","ECCENTRICITY":"0.00053180","INCLINATION":"11.1890","RA_OF_ASC_NODE":"321.4915","ARG_OF_PERICENTER":"164.1077","MEAN_ANOMALY":"299.5329","EPHEMERIS_TYPE":"0","CLASSIFICATION_TYPE":"U","NORAD_CAT_ID":"15057","ELEMENT_SET_NO":"999","REV_AT_EPOCH":"12820","BSTAR":"0.00000000000000","MEAN_MOTION_DOT":"-0.00000337","MEAN_MOTION_DDOT":"0.0000000000000","SEMIMAJOR_AXIS":"42167.868","PERIOD":"1436.257","APOAPSIS":"35812.158","PERIAPSIS":"35767.309","OBJECT_TYPE":"PAYLOAD","RCS_SIZE":"LARGE","COUNTRY_CODE":"CIS","LAUNCH_DATE":"1984-06-22","SITE":"TTMTR","DECAY_DATE":null,"FILE":"3684614","GP_ID":"219756879","TLE_LINE0":"0 RADUGA 15","TLE_LINE1":"1 15057U 84063A   22342.60769028 -.00000337  00000-0  00000-0 0  9994","TLE_LINE2":"2 15057  11.1890 321.4915 0005318 164.1077 299.5329  1.00260598128201"},{"CCSDS_OMM_VERS":"2.0","COMMENT":"GENERATED VIA SPACE-TRACK.ORG API","CREATION_DATE":"2022-12-08T18:21:51","ORIGINATOR":"18 SPCS","OBJECT_NAME":"CHINASAT 5 (SPACENET 1)","OBJECT_ID":"1984-049A","CENTER_NAME":"EARTH","REF_FRAME":"TEME","TIME_SYSTEM":"UTC","MEAN_ELEMENT_THEORY":"SGP4","EPOCH":"2022-12-08T13:39:26.866080","MEAN_MOTION":"0.99973893","ECCENTRICITY":"0.00087060","INCLINATION":"14.8480","RA_OF_ASC_NODE":"358.2180","ARG_OF_PERICENTER":"209.0972","MEAN_ANOMALY":"142.6325","EPHEMERIS_TYPE":"0","CLASSIFICATION_TYPE":"U","NORAD_CAT_ID":"14985","ELEMENT_SET_NO":"999","REV_AT_EPOCH":"11843","BSTAR":"0.00000000000000","MEAN_MOTION_DOT":"0.00000015","MEAN_MOTION_DDOT":"0.0000000000000","SEMIMAJOR_AXIS":"42248.449","PERIOD":"1440.376","APOAPSIS":"35907.096","PERIAPSIS":"35833.533","OBJECT_TYPE":"PAYLOAD","RCS_SIZE":"LARGE","COUNTRY_CODE":"PRC","LAUNCH_DATE":"1984-05-23","SITE":"FRGUI","DECAY_DATE":null,"FILE":"3684614","GP_ID":"219755376","TLE_LINE0":"0 CHINASAT 5 (SPACENET 1)","TLE_LINE1":"1 14985U 84049A   22342.56906095  .00000015  00000-0  00000-0 0  9991","TLE_LINE2":"2 14985  14.8480 358.2180 0008706 209.0972 142.6325  0.99973893118438"},{"CCSDS_OMM_VERS":"2.0","COMMENT":"GENERATED VIA SPACE-TRACK.ORG API","CREATION_DATE":"2022-12-08T18:21:51","ORIGINATOR":"18 SPCS","OBJECT_NAME":"SL-12 R\/B(2)","OBJECT_ID":"1984-031F","CENTER_NAME":"EARTH","REF_FRAME":"TEME","TIME_SYSTEM":"UTC","MEAN_ELEMENT_THEORY":"SGP4","EPOCH":"2022-12-08T05:32:18.850272","MEAN_MOTION":"0.99430066","ECCENTRICITY":"0.00144040","INCLINATION":"11.5250","RA_OF_ASC_NODE":"322.2145","ARG_OF_PERICENTER":"210.4507","MEAN_ANOMALY":"157.9301","EPHEMERIS_TYPE":"0","CLASSIFICATION_TYPE":"U","NORAD_CAT_ID":"14951","ELEMENT_SET_NO":"999","REV_AT_EPOCH":"10701","BSTAR":"0.00000000000000","MEAN_MOTION_DOT":"-0.00000181","MEAN_MOTION_DDOT":"0.0000000000000","SEMIMAJOR_AXIS":"42402.359","PERIOD":"1448.254","APOAPSIS":"36085.301","PERIAPSIS":"35963.148","OBJECT_TYPE":"ROCKET BODY","RCS_SIZE":"LARGE","COUNTRY_CODE":"CIS","LAUNCH_DATE":"1984-03-29","SITE":"TTMTR","DECAY_DATE":null,"FILE":"3684614","GP_ID":"219756618","TLE_LINE0":"0 SL-12 R\/B(2)","TLE_LINE1":"1 14951U 84031F   22342.23077373 -.00000181  00000-0  00000-0 0  9992","TLE_LINE2":"2 14951  11.5250 322.2145 0014404 210.4507 157.9301  0.99430066107019"},{"CCSDS_OMM_VERS":"2.0","COMMENT":"GENERATED VIA SPACE-TRACK.ORG API","CREATION_DATE":"2022-12-08T18:21:51","ORIGINATOR":"18 SPCS","OBJECT_NAME":"SL-12 R\/B(2)","OBJECT_ID":"1984-022F","CENTER_NAME":"EARTH","REF_FRAME":"TEME","TIME_SYSTEM":"UTC","MEAN_ELEMENT_THEORY":"SGP4","EPOCH":"2022-12-08T13:31:54.322752","MEAN_MOTION":"0.99861749","ECCENTRICITY":"0.00244080","INCLINATION":"12.1515","RA_OF_ASC_NODE":"316.8920","ARG_OF_PERICENTER":"120.4643","MEAN_ANOMALY":"263.7154","EPHEMERIS_TYPE":"0","CLASSIFICATION_TYPE":"U","NORAD_CAT_ID":"14948","ELEMENT_SET_NO":"999","REV_AT_EPOCH":"14843","BSTAR":"0.00000000000000","MEAN_MOTION_DOT":"0.00000090","MEAN_MOTION_DDOT":"0.0000000000000","SEMIMAJOR_AXIS":"42280.073","PERIOD":"1441.994","APOAPSIS":"36005.135","PERIAPSIS":"35798.741","OBJECT_TYPE":"ROCKET BODY","RCS_SIZE":"LARGE","COUNTRY_CODE":"CIS","LAUNCH_DATE":"1984-03-02","SITE":"TTMTR","DECAY_DATE":null,"FILE":"3684614","GP_ID":"219756124","TLE_LINE0":"0 SL-12 R\/B(2)","TLE_LINE1":"1 14948U 84022F   22342.56382318  .00000090  00000-0  00000-0 0  9990","TLE_LINE2":"2 14948  12.1515 316.8920 0024408 120.4643 263.7154  0.99861749148431"}]